[{"OBJECT_NAME":"ION SCV-004","OBJECT_ID":"2022-002K","EPOCH":"2026-03-09T16:32:03.244416","MEAN_MOTION":15.29369331,"ECCENTRICITY":0.00072157,"INCLINATION":97.2961,"RA_OF_ASC_NODE":128.2294,"ARG_OF_PERICENTER":1.6783,"MEAN_ANOMALY":358.448,"EPHEMERIS_TYPE":0,"CLASSIFICATION_TYPE":"U","NORAD_CAT_ID":50993,"ELEMENT_SET_NO":999,"REV_AT_EPOCH":23008,"BSTAR":0.00023198467,"MEAN_MOTION_DOT":6.538e-5,"MEAN_MOTION_DDOT":0},{"OBJECT_NAME":"STARLINK-34557","OBJECT_ID":"2025-144C","EPOCH":"2026-03-09T15:09:26.954208","MEAN_MOTION":15.30196866,"ECCENTRICITY":0.0001265,"INCLINATION":53.16,"RA_OF_ASC_NODE":181.2678,"ARG_OF_PERICENTER":65.2242,"MEAN_ANOMALY":294.8891,"EPHEMERIS_TYPE":0,"CLASSIFICATION_TYPE":"U","NORAD_CAT_ID":64726,"ELEMENT_SET_NO":999,"REV_AT_EPOCH":3970,"BSTAR":0.0014798,"MEAN_MOTION_DOT":0.00043723,"MEAN_MOTION_DDOT":0}]
